[{"OBJECT_NAME":"GSAT0218 (GALILEO 22)","OBJECT_ID":"2017-079D","EPOCH":"2026-02-01T01:46:49.285920","MEAN_MOTION":1.70474229,"ECCENTRICITY":0.00019444,"INCLINATION":55.1144,"RA_OF_ASC_NODE":225.2451,"ARG_OF_PERICENTER":318.8162,"MEAN_ANOMALY":41.188,"EPHEMERIS_TYPE":0,"CLASSIFICATION_TYPE":"U","NORAD_CAT_ID":43058,"ELEMENT_SET_NO":999,"REV_AT_EPOCH":5069,"BSTAR":0,"MEAN_MOTION_DOT":6.0e-7,"MEAN_MOTION_DDOT":0},{"OBJECT_NAME":"GOES 17","OBJECT_ID":"2018-022A","EPOCH":"2026-02-01T21:37:11.699904","MEAN_MOTION":1.00270248,"ECCENTRICITY":0.00030032,"INCLINATION":0.5894,"RA_OF_ASC_NODE":88.2206,"ARG_OF_PERICENTER":207.4398,"MEAN_ANOMALY":71.2007,"EPHEMERIS_TYPE":0,"CLASSIFICATION_TYPE":"U","NORAD_CAT_ID":43226,"ELEMENT_SET_NO":999,"REV_AT_EPOCH":2906,"BSTAR":0,"MEAN_MOTION_DOT":-1.92e-6,"MEAN_MOTION_DDOT":0},{"OBJECT_NAME":"GSAT0221 (GALILEO 25)","OBJECT_ID":"2018-060A","EPOCH":"2026-01-31T23:27:01.120320","MEAN_MOTION":1.70475392,"ECCENTRICITY":0.00063281,"INCLINATION":57.214,"RA_OF_ASC_NODE":345.4613,"ARG_OF_PERICENTER":298.487,"MEAN_ANOMALY":61.4322,"EPHEMERIS_TYPE":0,"CLASSIFICATION_TYPE":"U","NORAD_CAT_ID":43564,"ELEMENT_SET_NO":999,"REV_AT_EPOCH":4684,"BSTAR":0,"MEAN_MOTION_DOT":-1.02e-6,"MEAN_MOTION_DDOT":0},{"OBJECT_NAME":"GSAT0222 (GALILEO 26)","OBJECT_ID":"2018-060B","EPOCH":"2026-02-01T04:42:59.340960","MEAN_MOTION":1.70475117,"ECCENTRICITY":0.00052405,"INCLINATION":57.2175,"RA_OF_ASC_NODE":345.4586,"ARG_OF_PERICENTER":279.1026,"MEAN_ANOMALY":80.8213,"EPHEMERIS_TYPE":0,"CLASSIFICATION_TYPE":"U","NORAD_CAT_ID":43565,"ELEMENT_SET_NO":999,"REV_AT_EPOCH":4689,"BSTAR":0,"MEAN_MOTION_DOT":-1.03e-6,"MEAN_MOTION_DDOT":0},{"OBJECT_NAME":"GSAT0219 (GALILEO 23)","OBJECT_ID":"2018-060C","EPOCH":"2026-01-31T05:51:58.540320","MEAN_MOTION":1.70475322,"ECCENTRICITY":0.00056533,"INCLINATION":57.2171,"RA_OF_ASC_NODE":345.4859,"ARG_OF_PERICENTER":304.7808,"MEAN_ANOMALY":55.1491,"EPHEMERIS_TYPE":0,"CLASSIFICATION_TYPE":"U","NORAD_CAT_ID":43566,"ELEMENT_SET_NO":999,"REV_AT_EPOCH":4685,"BSTAR":0,"MEAN_MOTION_DOT":-1.01e-6,"MEAN_MOTION_DDOT":0},{"OBJECT_NAME":"GSAT0220 (GALILEO 24)","OBJECT_ID":"2018-060D","EPOCH":"2026-02-01T15:19:30.103104","MEAN_MOTION":1.70475269,"ECCENTRICITY":0.00058527,"INCLINATION":57.2163,"RA_OF_ASC_NODE":345.4479,"ARG_OF_PERICENTER":300.9494,"MEAN_ANOMALY":58.9764,"EPHEMERIS_TYPE":0,"CLASSIFICATION_TYPE":"U","NORAD_CAT_ID":43567,"ELEMENT_SET_NO":999,"REV_AT_EPOCH":4686,"BSTAR":0,"MEAN_MOTION_DOT":-1.04e-6,"MEAN_MOTION_DDOT":0},{"OBJECT_NAME":"BEIDOU-3 M13","OBJECT_ID":"2018-072A","EPOCH":"2026-02-01T03:34:57.759168","MEAN_MOTION":1.86230778,"ECCENTRICITY":0.0007971,"INCLINATION":56.5035,"RA_OF_ASC_NODE":67.1504,"ARG_OF_PERICENTER":302.7096,"MEAN_ANOMALY":57.2853,"EPHEMERIS_TYPE":0,"CLASSIFICATION_TYPE":"U","NORAD_CAT_ID":43622,"ELEMENT_SET_NO":999,"REV_AT_EPOCH":5012,"BSTAR":0,"MEAN_MOTION_DOT":-1.9e-7,"MEAN_MOTION_DDOT":0},{"OBJECT_NAME":"BEIDOU-3 M14","OBJECT_ID":"2018-072B","EPOCH":"2026-02-01T00:21:13.908384","MEAN_MOTION":1.86230745,"ECCENTRICITY":0.0005397,"INCLINATION":56.5051,"RA_OF_ASC_NODE":67.1488,"ARG_OF_PERICENTER":324.7118,"MEAN_ANOMALY":35.3244,"EPHEMERIS_TYPE":0,"CLASSIFICATION_TYPE":"U","NORAD_CAT_ID":43623,"ELEMENT_SET_NO":999,"REV_AT_EPOCH":5011,"BSTAR":0,"MEAN_MOTION_DOT":-1.9e-7,"MEAN_MOTION_DDOT":0},{"OBJECT_NAME":"GPS BIII-1","OBJECT_ID":"2018-109A","EPOCH":"2026-02-01T15:17:35.228256","MEAN_MOTION":2.0055522,"ECCENTRICITY":0.00377858,"INCLINATION":55.5954,"RA_OF_ASC_NODE":97.5354,"ARG_OF_PERICENTER":197.2047,"MEAN_ANOMALY":335.0835,"EPHEMERIS_TYPE":0,"CLASSIFICATION_TYPE":"U","NORAD_CAT_ID":43873,"ELEMENT_SET_NO":999,"REV_AT_EPOCH":5235,"BSTAR":0,"MEAN_MOTION_DOT":-1.1e-7,"MEAN_MOTION_DDOT":0},{"OBJECT_NAME":"METEOR-M2 2","OBJECT_ID":"2019-038A","EPOCH":"2026-02-01T22:45:52.305984","MEAN_MOTION":14.24317993,"ECCENTRICITY":0.00021911,"INCLINATION":98.9025,"RA_OF_ASC_NODE":18.321,"ARG_OF_PERICENTER":64.2639,"MEAN_ANOMALY":295.8765,"EPHEMERIS_TYPE":0,"CLASSIFICATION_TYPE":"U","NORAD_CAT_ID":44387,"ELEMENT_SET_NO":999,"REV_AT_EPOCH":34204,"BSTAR":4.7194935e-5,"MEAN_MOTION_DOT":6.3e-7,"MEAN_MOTION_DDOT":0},{"OBJECT_NAME":"GPS BIII-2","OBJECT_ID":"2019-056A","EPOCH":"2026-02-01T06:44:50.204832","MEAN_MOTION":2.00567362,"ECCENTRICITY":0.00577583,"INCLINATION":55.6997,"RA_OF_ASC_NODE":336.546,"ARG_OF_PERICENTER":198.5946,"MEAN_ANOMALY":335.6694,"EPHEMERIS_TYPE":0,"CLASSIFICATION_TYPE":"U","NORAD_CAT_ID":44506,"ELEMENT_SET_NO":999,"REV_AT_EPOCH":4734,"BSTAR":0,"MEAN_MOTION_DOT":-1.0e-6,"MEAN_MOTION_DDOT":0},{"OBJECT_NAME":"BEIDOU-3 M24","OBJECT_ID":"2019-061A","EPOCH":"2026-02-01T22:18:39.307968","MEAN_MOTION":1.86228814,"ECCENTRICITY":0.00091391,"INCLINATION":54.4014,"RA_OF_ASC_NODE":187.2885,"ARG_OF_PERICENTER":25.7089,"MEAN_ANOMALY":334.2822,"EPHEMERIS_TYPE":0,"CLASSIFICATION_TYPE":"U","NORAD_CAT_ID":44542,"ELEMENT_SET_NO":999,"REV_AT_EPOCH":4327,"BSTAR":0,"MEAN_MOTION_DOT":1.5e-7,"MEAN_MOTION_DDOT":0},{"OBJECT_NAME":"BEIDOU-3 M23","OBJECT_ID":"2019-061B","EPOCH":"2026-01-30T15:18:59.846688","MEAN_MOTION":1.86227081,"ECCENTRICITY":0.00055639,"INCLINATION":54.4001,"RA_OF_ASC_NODE":187.3342,"ARG_OF_PERICENTER":23.7219,"MEAN_ANOMALY":152.4453,"EPHEMERIS_TYPE":0,"CLASSIFICATION_TYPE":"U","NORAD_CAT_ID":44543,"ELEMENT_SET_NO":999,"REV_AT_EPOCH":4323,"BSTAR":0,"MEAN_MOTION_DOT":3.6e-7,"MEAN_MOTION_DDOT":0},{"OBJECT_NAME":"BEIDOU-3 M22","OBJECT_ID":"2019-078A","EPOCH":"2026-01-29T00:15:23.562432","MEAN_MOTION":1.86231886,"ECCENTRICITY":0.00067859,"INCLINATION":54.0631,"RA_OF_ASC_NODE":304.727,"ARG_OF_PERICENTER":29.9167,"MEAN_ANOMALY":330.1584,"EPHEMERIS_TYPE":0,"CLASSIFICATION_TYPE":"U","NORAD_CAT_ID":44793,"ELEMENT_SET_NO":999,"REV_AT_EPOCH":4205,"BSTAR":0,"MEAN_MOTION_DOT":-6.0e-7,"MEAN_MOTION_DDOT":0},{"OBJECT_NAME":"BEIDOU-3 M21","OBJECT_ID":"2019-078B","EPOCH":"2026-01-31T20:01:20.754336","MEAN_MOTION":1.86227479,"ECCENTRICITY":0.00049665,"INCLINATION":54.0333,"RA_OF_ASC_NODE":304.5914,"ARG_OF_PERICENTER":24.3367,"MEAN_ANOMALY":335.7313,"EPHEMERIS_TYPE":0,"CLASSIFICATION_TYPE":"U","NORAD_CAT_ID":44794,"ELEMENT_SET_NO":999,"REV_AT_EPOCH":4211,"BSTAR":0,"MEAN_MOTION_DOT":-6.0e-7,"MEAN_MOTION_DDOT":0},{"OBJECT_NAME":"ELEKTRO-L 3","OBJECT_ID":"2019-095A","EPOCH":"2026-02-01T22:24:22.178592","MEAN_MOTION":1.00270838,"ECCENTRICITY":0.0002507,"INCLINATION":0.0557,"RA_OF_ASC_NODE":99.9203,"ARG_OF_PERICENTER":202.1377,"MEAN_ANOMALY":242.1498,"EPHEMERIS_TYPE":0,"CLASSIFICATION_TYPE":"U","NORAD_CAT_ID":44903,"ELEMENT_SET_NO":999,"REV_AT_EPOCH":2235,"BSTAR":0,"MEAN_MOTION_DOT":-1.06e-6,"MEAN_MOTION_DDOT":0},{"OBJECT_NAME":"GPS BIII-3","OBJECT_ID":"2020-041A","EPOCH":"2026-01-30T21:02:56.891040","MEAN_MOTION":2.00560793,"ECCENTRICITY":0.0061076,"INCLINATION":56.5828,"RA_OF_ASC_NODE":34.2725,"ARG_OF_PERICENTER":204.8277,"MEAN_ANOMALY":338.6334,"EPHEMERIS_TYPE":0,"CLASSIFICATION_TYPE":"U","NORAD_CAT_ID":45854,"ELEMENT_SET_NO":999,"REV_AT_EPOCH":4128,"BSTAR":0,"MEAN_MOTION_DOT":-4.9e-7,"MEAN_MOTION_DDOT":0}]
